From: horizons@ssd.jpl.nasa.gov (Horizons Ephemeris System)
Subject: [Horizons] SMALL BODY #C(500@10)_T(Siding Spring (P/2006 HR30)) (1/1)
Date: February 23, 2021 at 4:21:03 PM PST

Automated mail xmit by MAIL_REQUEST, PID= 22901 Tue Feb 23 16:21:03 2021
++++++++++++++++++++++++++++++++ (part 1 of 1)  +++++++++++++++++++++++++++++++
*******************************************************************************
JPL/HORIZONS             Siding Spring (P/2006 HR30)       2021-Feb-23 16:21:03
Rec #:90003472 (+COV) Soln.date: 2020-Nov-11_11:00:38   # obs: 3059 (2005-2008)

IAU76/J2000 helio. ecliptic osc. elements (au, days, deg., period=Julian yrs):

 EPOCH=  2454046.5 ! 2006-Nov-07.0000000 (TDB)    RMSW= n.a.
  EC= .8431185485320141   QR= 1.226427694576658   TP= 2454102.7821608023
  OM= 309.9521598180311   W= 117.4138763973172    IN= 31.88449911302357
  A= 7.817544286469898    MA= 357.4621303550629   ADIST= 14.40866087836314
  PER= 21.858166996793    N= .0450919             ANGMOM= .025863009
  DAN= 3.69466            DDN= 1.62835            L= 71.3696722
  B= 27.9624531           MOID= .452907           TP= 2007-Jan-02.2821608023

Comet physical (GM= km^3/s^2; RAD= km):
  GM= n.a.                RAD= n.a.
  M1=  13.9     M2=  n.a.     k1=  4.5    k2= n.a.     PHCOF= n.a.

COMET comments 
1: soln ref.= JPL#88, data arc: 2005-07-06 to 2008-05-05
2: k1=4.5;
*******************************************************************************


*******************************************************************************
Ephemeris / MAIL_REQUEST Tue Feb 23 16:21:03 2021 Pasadena, USA  / Horizons
*******************************************************************************
Target body name: Siding Spring (P/2006 HR30)     {source: JPL#88}
Center body name: Sun (10)                        {source: DE431}
Center-site name: BODY CENTER
*******************************************************************************
Start time      : A.D. 1990-Jan-01 00:00:00.0000 TDB
Stop  time      : A.D. 2020-Dec-31 00:00:00.0000 TDB
Step-size       : 10080 minutes
*******************************************************************************
Center geodetic : 0.00000000,0.00000000,0.0000000 {E-lon(deg),Lat(deg),Alt(km)}
Center cylindric: 0.00000000,0.00000000,0.0000000 {E-lon(deg),Dxy(km),Dz(km)}
Center radii    : 696000.0 x 696000.0 x 696000.0 k{Equator, meridian, pole}    
Small perturbers: Yes                             {source: SB431-N16}
Output units    : AU-D
Output type     : GEOMETRIC cartesian states
Output format   : 6 (LT, range, and range-rate)
Reference frame : Ecliptic of J2000.0
*******************************************************************************
Initial IAU76/J2000 heliocentric ecliptic osculating elements (au, days, deg.):
 EPOCH=  2454046.5 ! 2006-Nov-07.0000000 (TDB)    RMSW= n.a.                  
  EC= .8431185485320141   QR= 1.226427694576658   TP= 2454102.7821608023      
  OM= 309.9521598180311   W= 117.4138763973172    IN= 31.88449911302357       
 Equivalent ICRF heliocentric equatorial cartesian coordinates (au, au/d):
  X= 1.228433599369995E+00  Y= 1.210550718539805E-02  Z= 7.844219159632776E-01
 VX=-1.244704027686080E-02 VY= 1.343854803592959E-02 VZ= 5.714803991870960E-03
Comet physical (GM= km^3/s^2; RAD= km):                                        
  GM= n.a.                RAD= n.a.                                           
  M1=  13.9     M2=  n.a.     k1=  4.5    k2= n.a.     PHCOF= n.a.            
*******************************************************************************
           JDTDB,            Calendar Date (TDB),                     LT,                     RG,                     RR,
**************************************************************************************************************************
$$SOE
2453492.500000000, A.D. 2005-May-02 00:00:00.0000,  3.461613690470633E-02,  5.993598308966591E+00, -6.498527150568243E-03,
2453499.500000000, A.D. 2005-May-09 00:00:00.0000,  3.435268133496105E-02,  5.947982391117066E+00, -6.534656151221696E-03,
2453506.500000000, A.D. 2005-May-16 00:00:00.0000,  3.408775731925960E-02,  5.902112219731851E+00, -6.571172198582333E-03,
2453513.500000000, A.D. 2005-May-23 00:00:00.0000,  3.382134906810679E-02,  5.855985060944612E+00, -6.608082255500194E-03,
2453520.500000000, A.D. 2005-May-30 00:00:00.0000,  3.355344051796823E-02,  5.809598133440582E+00, -6.645392905956411E-03,
2453527.500000000, A.D. 2005-Jun-06 00:00:00.0000,  3.328401533721347E-02,  5.762948609485607E+00, -6.683111130155470E-03,
2453534.500000000, A.D. 2005-Jun-13 00:00:00.0000,  3.301305686933196E-02,  5.716033605094289E+00, -6.721246175184489E-03,
2453541.500000000, A.D. 2005-Jun-20 00:00:00.0000,  3.274054805824024E-02,  5.668850167097318E+00, -6.759807982016719E-03,
2453548.500000000, A.D. 2005-Jun-27 00:00:00.0000,  3.246647147507137E-02,  5.621395277779934E+00, -6.798805014949188E-03,
2453555.500000000, A.D. 2005-Jul-04 00:00:00.0000,  3.219080936559846E-02,  5.573665863093040E+00, -6.838245109475140E-03,
2453562.500000000, A.D. 2005-Jul-11 00:00:00.0000,  3.191354365737809E-02,  5.525658793890061E+00, -6.878136221428751E-03,
2453569.500000000, A.D. 2005-Jul-18 00:00:00.0000,  3.163465595200071E-02,  5.477370884585135E+00, -6.918486512779419E-03,
2453576.500000000, A.D. 2005-Jul-25 00:00:00.0000,  3.135412751802003E-02,  5.428798891928869E+00, -6.959304284588940E-03,
2453583.500000000, A.D. 2005-Aug-01 00:00:00.0000,  3.107193928675326E-02,  5.379939514281191E+00, -7.000597907629558E-03,
2453590.500000000, A.D. 2005-Aug-08 00:00:00.0000,  3.078807185095638E-02,  5.330789391381962E+00, -7.042375743237172E-03,
2453597.500000000, A.D. 2005-Aug-15 00:00:00.0000,  3.050250546783820E-02,  5.281345104872853E+00, -7.084645993958605E-03,
2453604.500000000, A.D. 2005-Aug-22 00:00:00.0000,  3.021522007090295E-02,  5.231603180347828E+00, -7.127416414064501E-03,
2453611.500000000, A.D. 2005-Aug-29 00:00:00.0000,  2.992619529198386E-02,  5.181560091168126E+00, -7.170694252759864E-03,
2453618.500000000, A.D. 2005-Sep-05 00:00:00.0000,  2.963541045721642E-02,  5.131212257765079E+00, -7.214487780202664E-03,
2453625.500000000, A.D. 2005-Sep-12 00:00:00.0000,  2.934284451313882E-02,  5.080556034844769E+00, -7.258807293106357E-03,
2453632.500000000, A.D. 2005-Sep-19 00:00:00.0000,  2.904847599462022E-02,  5.029587705835007E+00, -7.303662390386302E-03,
2453639.500000000, A.D. 2005-Sep-26 00:00:00.0000,  2.875228308182366E-02,  4.978303492748132E+00, -7.349061176987222E-03,
2453646.500000000, A.D. 2005-Oct-03 00:00:00.0000,  2.845424363870234E-02,  4.926699562846457E+00, -7.395011325257743E-03,
2453653.500000000, A.D. 2005-Oct-10 00:00:00.0000,  2.815433522011366E-02,  4.874772029874007E+00, -7.441520465616731E-03,
2453660.500000000, A.D. 2005-Oct-17 00:00:00.0000,  2.785253507364200E-02,  4.822516954372140E+00, -7.488596152391032E-03,
2453667.500000000, A.D. 2005-Oct-24 00:00:00.0000,  2.754882014474871E-02,  4.769930344571229E+00, -7.536245759149534E-03,
2453674.500000000, A.D. 2005-Oct-31 00:00:00.0000,  2.724316708634546E-02,  4.717008158048237E+00, -7.584476363757308E-03,
2453681.500000000, A.D. 2005-Nov-07 00:00:00.0000,  2.693555227368336E-02,  4.663746304304704E+00, -7.633294590727722E-03,
2453688.500000000, A.D. 2005-Nov-14 00:00:00.0000,  2.662595182779969E-02,  4.610140648826395E+00, -7.682706328549484E-03,
2453695.500000000, A.D. 2005-Nov-21 00:00:00.0000,  2.631434165375878E-02,  4.556187019704526E+00, -7.732716311557993E-03,
2453702.500000000, A.D. 2005-Nov-28 00:00:00.0000,  2.600069748688654E-02,  4.501881215641014E+00, -7.783328409174928E-03,
2453709.500000000, A.D. 2005-Dec-05 00:00:00.0000,  2.568499489135339E-02,  4.447219005703122E+00, -7.834547504810330E-03,
2453716.500000000, A.D. 2005-Dec-12 00:00:00.0000,  2.536720921776302E-02,  4.392196121980183E+00, -7.886378748613608E-03,
2453723.500000000, A.D. 2005-Dec-19 00:00:00.0000,  2.504731565508871E-02,  4.336808268576085E+00, -7.938824764089924E-03,
2453730.500000000, A.D. 2005-Dec-26 00:00:00.0000,  2.472528933744662E-02,  4.281051140096507E+00, -7.991885804400686E-03,
2453737.500000000, A.D. 2006-Jan-02 00:00:00.0000,  2.440110542471413E-02,  4.224920435607543E+00, -8.045560372418329E-03,
2453744.500000000, A.D. 2006-Jan-09 00:00:00.0000,  2.407473917371526E-02,  4.168411870961073E+00, -8.099845118579923E-03,
2453751.500000000, A.D. 2006-Jan-16 00:00:00.0000,  2.374616602025660E-02,  4.111521192998858E+00, -8.154734468112108E-03,
2453758.500000000, A.D. 2006-Jan-23 00:00:00.0000,  2.341536167796312E-02,  4.054244196665408E+00, -8.210220172626329E-03,
2453765.500000000, A.D. 2006-Jan-30 00:00:00.0000,  2.308230225653983E-02,  3.996576745484379E+00, -8.266290791978612E-03,
2453772.500000000, A.D. 2006-Feb-06 00:00:00.0000,  2.274696440331668E-02,  3.938514796066289E+00, -8.322931045504559E-03,
2453779.500000000, A.D. 2006-Feb-13 00:00:00.0000,  2.240932547553220E-02,  3.880054427938519E+00, -8.380120922336505E-03,
2453786.500000000, A.D. 2006-Feb-20 00:00:00.0000,  2.206936375237930E-02,  3.821191880259907E+00, -8.437834704901533E-03,
2453793.500000000, A.D. 2006-Feb-27 00:00:00.0000,  2.172705866715973E-02,  3.761923592017041E+00, -8.496041242534934E-03,
2453800.500000000, A.D. 2006-Mar-06 00:00:00.0000,  2.138239100344208E-02,  3.702246235987962E+00, -8.554704744505565E-03,
2453807.500000000, A.D. 2006-Mar-13 00:00:00.0000,  2.103534313441360E-02,  3.642156760184645E+00, -8.613781627497799E-03,
2453814.500000000, A.D. 2006-Mar-20 00:00:00.0000,  2.068589940677047E-02,  3.581652454321559E+00, -8.673217660014016E-03,
2453821.500000000, A.D. 2006-Mar-27 00:00:00.0000,  2.033404658552115E-02,  3.520731026830950E+00, -8.732947328069859E-03,
2453828.500000000, A.D. 2006-Apr-03 00:00:00.0000,  1.997977433095556E-02,  3.459390687447516E+00, -8.792892635911823E-03,
2453835.500000000, A.D. 2006-Apr-10 00:00:00.0000,  1.962307574155313E-02,  3.397630241210014E+00, -8.852961117469516E-03,
